{"fetched_at":"2026-07-16T17:46:57.236Z","source":"https://celestrak.org/NORAD/elements/gp.php?NAME=SENTINEL&FORMAT=JSON","constellation":"sentinel-2","records":[{"OBJECT_NAME":"SENTINEL-2A","OBJECT_ID":"2015-028A","EPOCH":"2026-07-16T07:20:04.572672","CLASSIFICATION_TYPE":"U","MEAN_MOTION":14.30814775,"ECCENTRICITY":0.00012907,"INCLINATION":98.5682,"RA_OF_ASC_NODE":271.7425,"ARG_OF_PERICENTER":94.8749,"MEAN_ANOMALY":265.2581,"EPHEMERIS_TYPE":0,"NORAD_CAT_ID":40697,"ELEMENT_SET_NO":999,"REV_AT_EPOCH":57789,"BSTAR":0.000042683085,"MEAN_MOTION_DOT":6.8e-7,"MEAN_MOTION_DDOT":0},{"OBJECT_NAME":"SENTINEL-2B","OBJECT_ID":"2017-013A","EPOCH":"2026-07-16T07:09:43.392960","CLASSIFICATION_TYPE":"U","MEAN_MOTION":14.3081531,"ECCENTRICITY":0.0001208,"INCLINATION":98.569,"RA_OF_ASC_NODE":271.6607,"ARG_OF_PERICENTER":90.4508,"MEAN_ANOMALY":269.6814,"EPHEMERIS_TYPE":0,"NORAD_CAT_ID":42063,"ELEMENT_SET_NO":999,"REV_AT_EPOCH":48880,"BSTAR":0.000017592097,"MEAN_MOTION_DOT":2e-8,"MEAN_MOTION_DDOT":0},{"OBJECT_NAME":"SENTINEL-2C","OBJECT_ID":"2024-157A","EPOCH":"2026-07-16T04:38:41.765280","CLASSIFICATION_TYPE":"U","MEAN_MOTION":14.30815821,"ECCENTRICITY":0.00009704,"INCLINATION":98.5685,"RA_OF_ASC_NODE":271.5638,"ARG_OF_PERICENTER":103.9825,"MEAN_ANOMALY":256.1466,"EPHEMERIS_TYPE":0,"NORAD_CAT_ID":60989,"ELEMENT_SET_NO":999,"REV_AT_EPOCH":9713,"BSTAR":0.000033945914,"MEAN_MOTION_DOT":4.5e-7,"MEAN_MOTION_DDOT":0}]}
